[{"OBJECT_NAME":"STARLINK-30609","OBJECT_ID":"2023-160L","EPOCH":"2026-03-19T06:00:02.000160","MEAN_MOTION":15.2669714,"ECCENTRICITY":0.00017324,"INCLINATION":43.0005,"RA_OF_ASC_NODE":27.103,"ARG_OF_PERICENTER":267.2914,"MEAN_ANOMALY":328.9473,"EPHEMERIS_TYPE":0,"CLASSIFICATION_TYPE":"U","NORAD_CAT_ID":58085,"ELEMENT_SET_NO":999,"REV_AT_EPOCH":578,"BSTAR":0.0023701288,"MEAN_MOTION_DOT":0.00063785,"MEAN_MOTION_DDOT":0},{"OBJECT_NAME":"STARLINK-30583","OBJECT_ID":"2023-160M","EPOCH":"2026-03-19T06:00:02.000160","MEAN_MOTION":15.26641805,"ECCENTRICITY":0.00015876,"INCLINATION":43.001,"RA_OF_ASC_NODE":27.1375,"ARG_OF_PERICENTER":257.9427,"MEAN_ANOMALY":322.5266,"EPHEMERIS_TYPE":0,"CLASSIFICATION_TYPE":"U","NORAD_CAT_ID":58086,"ELEMENT_SET_NO":999,"REV_AT_EPOCH":578,"BSTAR":0.0033607196,"MEAN_MOTION_DOT":0.00090732,"MEAN_MOTION_DDOT":0},{"OBJECT_NAME":"STARLINK-30557","OBJECT_ID":"2023-160N","EPOCH":"2026-03-19T06:00:02.000160","MEAN_MOTION":15.23316907,"ECCENTRICITY":0.00016761,"INCLINATION":43.0005,"RA_OF_ASC_NODE":27.4005,"ARG_OF_PERICENTER":311.8925,"MEAN_ANOMALY":155.2108,"EPHEMERIS_TYPE":0,"CLASSIFICATION_TYPE":"U","NORAD_CAT_ID":58087,"ELEMENT_SET_NO":999,"REV_AT_EPOCH":578,"BSTAR":0.069643165,"MEAN_MOTION_DOT":0.018561,"MEAN_MOTION_DDOT":0},{"OBJECT_NAME":"STARLINK-30591","OBJECT_ID":"2023-160P","EPOCH":"2026-03-19T06:20:25.402560","MEAN_MOTION":15.27553561,"ECCENTRICITY":0.00017502,"INCLINATION":43.0023,"RA_OF_ASC_NODE":23.5075,"ARG_OF_PERICENTER":261.9246,"MEAN_ANOMALY":98.1407,"EPHEMERIS_TYPE":0,"CLASSIFICATION_TYPE":"U","NORAD_CAT_ID":58088,"ELEMENT_SET_NO":999,"REV_AT_EPOCH":13441,"BSTAR":0.00048162067,"MEAN_MOTION_DOT":0.00013004,"MEAN_MOTION_DDOT":0},{"OBJECT_NAME":"STARLINK-30584","OBJECT_ID":"2023-160Q","EPOCH":"2026-03-18T21:15:50.048352","MEAN_MOTION":15.27571432,"ECCENTRICITY":5.284e-5,"INCLINATION":43.0017,"RA_OF_ASC_NODE":25.824,"ARG_OF_PERICENTER":229.4157,"MEAN_ANOMALY":130.6649,"EPHEMERIS_TYPE":0,"CLASSIFICATION_TYPE":"U","NORAD_CAT_ID":58089,"ELEMENT_SET_NO":999,"REV_AT_EPOCH":13435,"BSTAR":7.7339629e-5,"MEAN_MOTION_DOT":1.866e-5,"MEAN_MOTION_DDOT":0},{"OBJECT_NAME":"STARLINK-30590","OBJECT_ID":"2023-160R","EPOCH":"2026-03-19T06:00:02.000160","MEAN_MOTION":15.23184515,"ECCENTRICITY":0.00015115,"INCLINATION":43.0012,"RA_OF_ASC_NODE":27.3725,"ARG_OF_PERICENTER":317.8628,"MEAN_ANOMALY":161.4389,"EPHEMERIS_TYPE":0,"CLASSIFICATION_TYPE":"U","NORAD_CAT_ID":58090,"ELEMENT_SET_NO":999,"REV_AT_EPOCH":578,"BSTAR":0.067474849,"MEAN_MOTION_DOT":0.01784598,"MEAN_MOTION_DDOT":0},{"OBJECT_NAME":"STARLINK-30608","OBJECT_ID":"2023-160S","EPOCH":"2026-03-18T22:46:16.898016","MEAN_MOTION":15.26745286,"ECCENTRICITY":0.00013324,"INCLINATION":42.9999,"RA_OF_ASC_NODE":25.4335,"ARG_OF_PERICENTER":275.3182,"MEAN_ANOMALY":84.7517,"EPHEMERIS_TYPE":0,"CLASSIFICATION_TYPE":"U","NORAD_CAT_ID":58091,"ELEMENT_SET_NO":999,"REV_AT_EPOCH":13436,"BSTAR":4.6646983e-5,"MEAN_MOTION_DOT":9.92e-6,"MEAN_MOTION_DDOT":0},{"OBJECT_NAME":"STARLINK-30615","OBJECT_ID":"2023-160T","EPOCH":"2026-03-18T23:33:19.490976","MEAN_MOTION":15.2672897,"ECCENTRICITY":0.00014384,"INCLINATION":43.0072,"RA_OF_ASC_NODE":25.6803,"ARG_OF_PERICENTER":249.8881,"MEAN_ANOMALY":110.1815,"EPHEMERIS_TYPE":0,"CLASSIFICATION_TYPE":"U","NORAD_CAT_ID":58092,"ELEMENT_SET_NO":999,"REV_AT_EPOCH":13436,"BSTAR":-2.8390136e-5,"MEAN_MOTION_DOT":-1.021e-5,"MEAN_MOTION_DDOT":0},{"OBJECT_NAME":"STARLINK-30578","OBJECT_ID":"2023-160U","EPOCH":"2026-03-18T21:13:58.698624","MEAN_MOTION":15.27577414,"ECCENTRICITY":0.00015214,"INCLINATION":43.0013,"RA_OF_ASC_NODE":25.805,"ARG_OF_PERICENTER":283.3637,"MEAN_ANOMALY":76.7045,"EPHEMERIS_TYPE":0,"CLASSIFICATION_TYPE":"U","NORAD_CAT_ID":58093,"ELEMENT_SET_NO":999,"REV_AT_EPOCH":13435,"BSTAR":3.6114193e-5,"MEAN_MOTION_DOT":7.32e-6,"MEAN_MOTION_DDOT":0},{"OBJECT_NAME":"STARLINK-30574","OBJECT_ID":"2023-160V","EPOCH":"2026-03-19T03:25:01.907616","MEAN_MOTION":15.27612079,"ECCENTRICITY":0.00013933,"INCLINATION":43.0012,"RA_OF_ASC_NODE":24.3061,"ARG_OF_PERICENTER":276.3065,"MEAN_ANOMALY":83.7628,"EPHEMERIS_TYPE":0,"CLASSIFICATION_TYPE":"U","NORAD_CAT_ID":58094,"ELEMENT_SET_NO":999,"REV_AT_EPOCH":13439,"BSTAR":0.00034086934,"MEAN_MOTION_DOT":9.139e-5,"MEAN_MOTION_DDOT":0},{"OBJECT_NAME":"STARLINK-30570","OBJECT_ID":"2023-160W","EPOCH":"2026-03-19T03:37:50.450304","MEAN_MOTION":15.26739674,"ECCENTRICITY":0.00011248,"INCLINATION":42.9997,"RA_OF_ASC_NODE":24.3711,"ARG_OF_PERICENTER":272.3309,"MEAN_ANOMALY":87.7413,"EPHEMERIS_TYPE":0,"CLASSIFICATION_TYPE":"U","NORAD_CAT_ID":58095,"ELEMENT_SET_NO":999,"REV_AT_EPOCH":13439,"BSTAR":1.7599198e-5,"MEAN_MOTION_DOT":2.12e-6,"MEAN_MOTION_DDOT":0},{"OBJECT_NAME":"STARLINK-30581","OBJECT_ID":"2023-160X","EPOCH":"2026-03-18T23:14:01.970304","MEAN_MOTION":15.27580973,"ECCENTRICITY":0.00012751,"INCLINATION":43.0051,"RA_OF_ASC_NODE":25.5707,"ARG_OF_PERICENTER":261.1744,"MEAN_ANOMALY":98.8964,"EPHEMERIS_TYPE":0,"CLASSIFICATION_TYPE":"U","NORAD_CAT_ID":58096,"ELEMENT_SET_NO":999,"REV_AT_EPOCH":13436,"BSTAR":2.2425946e-5,"MEAN_MOTION_DOT":3.55e-6,"MEAN_MOTION_DDOT":0},{"OBJECT_NAME":"STARLINK-30594","OBJECT_ID":"2023-161A","EPOCH":"2026-03-19T07:13:43.776768","MEAN_MOTION":15.3018776,"ECCENTRICITY":0.00012518,"INCLINATION":53.16,"RA_OF_ASC_NODE":120.8578,"ARG_OF_PERICENTER":87.9423,"MEAN_ANOMALY":272.1721,"EPHEMERIS_TYPE":0,"CLASSIFICATION_TYPE":"U","NORAD_CAT_ID":58097,"ELEMENT_SET_NO":999,"REV_AT_EPOCH":13589,"BSTAR":-4.6727569e-5,"MEAN_MOTION_DOT":-1.742e-5,"MEAN_MOTION_DDOT":0},{"OBJECT_NAME":"STARLINK-30614","OBJECT_ID":"2023-161B","EPOCH":"2026-03-19T07:09:10.932480","MEAN_MOTION":15.30167511,"ECCENTRICITY":7.67e-5,"INCLINATION":53.1603,"RA_OF_ASC_NODE":120.8363,"ARG_OF_PERICENTER":125.2499,"MEAN_ANOMALY":234.8574,"EPHEMERIS_TYPE":0,"CLASSIFICATION_TYPE":"U","NORAD_CAT_ID":58098,"ELEMENT_SET_NO":999,"REV_AT_EPOCH":13589,"BSTAR":-9.3598171e-5,"MEAN_MOTION_DOT":-3.127e-5,"MEAN_MOTION_DDOT":0},{"OBJECT_NAME":"STARLINK-30607","OBJECT_ID":"2023-161C","EPOCH":"2026-03-19T07:13:49.082592","MEAN_MOTION":15.30232721,"ECCENTRICITY":8.424e-5,"INCLINATION":53.1604,"RA_OF_ASC_NODE":110.857,"ARG_OF_PERICENTER":111.5426,"MEAN_ANOMALY":248.5665,"EPHEMERIS_TYPE":0,"CLASSIFICATION_TYPE":"U","NORAD_CAT_ID":58099,"ELEMENT_SET_NO":999,"REV_AT_EPOCH":13602,"BSTAR":-3.9261601e-5,"MEAN_MOTION_DOT":-1.523e-5,"MEAN_MOTION_DDOT":0},{"OBJECT_NAME":"STARLINK-30600","OBJECT_ID":"2023-161D","EPOCH":"2026-03-19T07:22:49.563840","MEAN_MOTION":15.30197213,"ECCENTRICITY":0.00012393,"INCLINATION":53.1611,"RA_OF_ASC_NODE":120.8846,"ARG_OF_PERICENTER":96.1705,"MEAN_ANOMALY":263.9437,"EPHEMERIS_TYPE":0,"CLASSIFICATION_TYPE":"U","NORAD_CAT_ID":58100,"ELEMENT_SET_NO":999,"REV_AT_EPOCH":13589,"BSTAR":-3.850161e-6,"MEAN_MOTION_DOT":-4.73e-6,"MEAN_MOTION_DDOT":0}]
