STARLINK-30609          
1 58085U 23160L   26078.25002315  .00063785  00000+0  23701-2 0  9992
2 58085  43.0005  27.1030 0001732 267.2914 328.9473 15.26697140  5784
STARLINK-30583          
1 58086U 23160M   26078.25002315  .00090732  00000+0  33607-2 0  9991
2 58086  43.0010  27.1375 0001587 257.9427 322.5266 15.26641805  5783
STARLINK-30557          
1 58087U 23160N   26078.25002315  .01856100  00000+0  69643-1 0  9990
2 58087  43.0005  27.4005 0001676 311.8925 155.2108 15.23316907  5788
STARLINK-30591          
1 58088U 23160P   26078.26418290  .00013004  00000+0  48162-3 0  9997
2 58088  43.0023  23.5075 0001750 261.9246  98.1407 15.27553561134410
STARLINK-30584          
1 58089U 23160Q   26077.88599593  .00001866  00000+0  77340-4 0  9995
2 58089  43.0017  25.8240 0000528 229.4157 130.6649 15.27571432134355
STARLINK-30590          
1 58090U 23160R   26078.25002315  .01784598  00000+0  67475-1 0  9996
2 58090  43.0012  27.3725 0001511 317.8628 161.4389 15.23184515  5780
STARLINK-30608          
1 58091U 23160S   26077.94880669  .00000992  00000+0  46647-4 0  9997
2 58091  42.9999  25.4335 0001332 275.3182  84.7517 15.26745286134361
STARLINK-30615          
1 58092U 23160T   26077.98147559 -.00001021  00000+0 -28390-4 0  9997
2 58092  43.0072  25.6803 0001438 249.8881 110.1815 15.26728970134363
STARLINK-30578          
1 58093U 23160U   26077.88470716  .00000732  00000+0  36114-4 0  9990
2 58093  43.0013  25.8050 0001521 283.3637  76.7045 15.27577414134357
STARLINK-30574          
1 58094U 23160V   26078.14238319  .00009139  00000+0  34087-3 0  9998
2 58094  43.0012  24.3061 0001393 276.3065  83.7628 15.27612079134393
STARLINK-30570          
1 58095U 23160W   26078.15127836  .00000212  00000+0  17599-4 0  9994
2 58095  42.9997  24.3711 0001124 272.3309  87.7413 15.26739674134391
STARLINK-30581          
1 58096U 23160X   26077.96807836  .00000355  00000+0  22426-4 0  9991
2 58096  43.0051  25.5707 0001275 261.1744  98.8964 15.27580973134367
STARLINK-30594          
1 58097U 23161A   26078.30120112 -.00001742  00000+0 -46728-4 0  9991
2 58097  53.1600 120.8578 0001251  87.9423 272.1721 15.30187760135895
STARLINK-30614          
1 58098U 23161B   26078.29804320 -.00003127  00000+0 -93598-4 0  9996
2 58098  53.1603 120.8363 0000767 125.2499 234.8574 15.30167511135894
STARLINK-30607          
1 58099U 23161C   26078.30126253 -.00001523  00000+0 -39262-4 0  9997
2 58099  53.1604 110.8570 0000842 111.5426 248.5665 15.30232721136022
STARLINK-30600          
1 58100U 23161D   26078.30751810 -.00000473  00000+0 -38502-5 0  9993
2 58100  53.1611 120.8846 0001239  96.1705 263.9437 15.30197213135897
